{
  "type": "FeatureCollection",
  "features": [
    {
      "type": "Feature",
      "properties": {
        "norad_id": 31005,
        "name": "FENGYUN 1C DEB",
        "group": "fengyun-1c-debris",
        "lat": 58.804726207248066,
        "lon": 119.72809221141561,
        "alt_km": 1039.8908008830404,
        "timestamp": "2025-12-27T17:24:57.685296+00:00",
        "meta_object_name": "FENGYUN 1C DEB",
        "meta_object_id": "1999-025BCX",
        "meta_epoch": "2025-12-25T08:06:17.154720",
        "meta_mean_motion": 13.83315917,
        "meta_eccentricity": 0.0181141,
        "meta_inclination": 98.6135,
        "meta_ra_of_asc_node": 132.0365,
        "meta_arg_of_pericenter": 290.9603,
        "meta_mean_anomaly": 122.0502,
        "meta_ephemeris_type": 0,
        "meta_classification_type": "U",
        "meta_norad_cat_id": 31005,
        "meta_element_set_no": 999,
        "meta_rev_at_epoch": 94455,
        "meta_bstar": 0.0012807,
        "meta_mean_motion_dot": 1.556e-05,
        "meta_mean_motion_ddot": 0,
        "tle_line1": "1 31005U 99025BCX 25359.33769855  .00001556  00000+0  12807-2 0  9990",
        "tle_line2": "2 31005  98.6135 132.0365 0181141 290.9603 122.0502 13.83315917944558"
      },
      "geometry": {
        "type": "Point",
        "coordinates": [
          119.72809221141561,
          58.804726207248066
        ]
      }
    },
    {
      "type": "Feature",
      "properties": {
        "norad_id": 31007,
        "name": "FENGYUN 1C DEB",
        "group": "fengyun-1c-debris",
        "lat": -50.560300291276384,
        "lon": 163.1781814599182,
        "alt_km": 727.0699045527708,
        "timestamp": "2025-12-27T17:24:57.685306+00:00",
        "meta_object_name": "FENGYUN 1C DEB",
        "meta_object_id": "1999-025BCZ",
        "meta_epoch": "2025-12-27T04:50:03.352416",
        "meta_mean_motion": 14.58953969,
        "meta_eccentricity": 0.00662356,
        "meta_inclination": 98.089,
        "meta_ra_of_asc_node": 352.6238,
        "meta_arg_of_pericenter": 353.4568,
        "meta_mean_anomaly": 6.576,
        "meta_ephemeris_type": 0,
        "meta_classification_type": "U",
        "meta_norad_cat_id": 31007,
        "meta_element_set_no": 999,
        "meta_rev_at_epoch": 98305,
        "meta_bstar": 0.0027689443,
        "meta_mean_motion_dot": 0.00013363,
        "meta_mean_motion_ddot": 0,
        "tle_line1": "1 31007U 99025BCZ 25361.20142769  .00013363  00000+0  27689-2 0  9993",
        "tle_line2": "2 31007  98.0890 352.6238 0066235 353.4568   6.5760 14.58953969983050"
      },
      "geometry": {
        "type": "Point",
        "coordinates": [
          163.1781814599182,
          -50.560300291276384
        ]
      }
    },
    {
      "type": "Feature",
      "properties": {
        "norad_id": 31009,
        "name": "FENGYUN 1C DEB",
        "group": "fengyun-1c-debris",
        "lat": -53.87867195736602,
        "lon": 164.75147934884384,
        "alt_km": 869.5943661132187,
        "timestamp": "2025-12-27T17:24:57.685316+00:00",
        "meta_object_name": "FENGYUN 1C DEB",
        "meta_object_id": "1999-025BDB",
        "meta_epoch": "2025-12-26T23:25:40.076256",
        "meta_mean_motion": 14.00368433,
        "meta_eccentricity": 0.0053338,
        "meta_inclination": 98.8965,
        "meta_ra_of_asc_node": 356.4159,
        "meta_arg_of_pericenter": 197.0378,
        "meta_mean_anomaly": 220.9032,
        "meta_ephemeris_type": 0,
        "meta_classification_type": "U",
        "meta_norad_cat_id": 31009,
        "meta_element_set_no": 999,
        "meta_rev_at_epoch": 96060,
        "meta_bstar": 0.0001081,
        "meta_mean_motion_dot": 1.19e-06,
        "meta_mean_motion_ddot": 0,
        "tle_line1": "1 31009U 99025BDB 25360.97615829  .00000119  00000+0  10810-3 0  9994",
        "tle_line2": "2 31009  98.8965 356.4159 0053338 197.0378 220.9032 14.00368433960601"
      },
      "geometry": {
        "type": "Point",
        "coordinates": [
          164.75147934884384,
          -53.87867195736602
        ]
      }
    },
    {
      "type": "Feature",
      "properties": {
        "norad_id": 31010,
        "name": "FENGYUN 1C DEB",
        "group": "fengyun-1c-debris",
        "lat": -53.957365860141294,
        "lon": -42.848626482958835,
        "alt_km": 796.359366713571,
        "timestamp": "2025-12-27T17:24:57.685327+00:00",
        "meta_object_name": "FENGYUN 1C DEB",
        "meta_object_id": "1999-025BDC",
        "meta_epoch": "2025-12-26T21:46:56.093952",
        "meta_mean_motion": 14.26027308,
        "meta_eccentricity": 0.0113378,
        "meta_inclination": 101.7251,
        "meta_ra_of_asc_node": 152.6427,
        "meta_arg_of_pericenter": 317.4138,
        "meta_mean_anomaly": 41.828,
        "meta_ephemeris_type": 0,
        "meta_classification_type": "U",
        "meta_norad_cat_id": 31010,
        "meta_element_set_no": 999,
        "meta_rev_at_epoch": 95831,
        "meta_bstar": 0.004088,
        "meta_mean_motion_dot": 0.00010391,
        "meta_mean_motion_ddot": 0,
        "tle_line1": "1 31010U 99025BDC 25360.90759368  .00010391  00000+0  40880-2 0  9998",
        "tle_line2": "2 31010 101.7251 152.6427 0113378 317.4138  41.8280 14.26027308958313"
      },
      "geometry": {
        "type": "Point",
        "coordinates": [
          -42.848626482958835,
          -53.957365860141294
        ]
      }
    },
    {
      "type": "Feature",
      "properties": {
        "norad_id": 31012,
        "name": "FENGYUN 1C DEB",
        "group": "fengyun-1c-debris",
        "lat": 76.6580804044143,
        "lon": -141.29300158196511,
        "alt_km": 826.9382886975263,
        "timestamp": "2025-12-27T17:24:57.685337+00:00",
        "meta_object_name": "FENGYUN 1C DEB",
        "meta_object_id": "1999-025BDE",
        "meta_epoch": "2025-12-25T16:31:40.864224",
        "meta_mean_motion": 14.27874514,
        "meta_eccentricity": 0.00816684,
        "meta_inclination": 98.9114,
        "meta_ra_of_asc_node": 258.0495,
        "meta_arg_of_pericenter": 213.4298,
        "meta_mean_anomaly": 202.3807,
        "meta_ephemeris_type": 0,
        "meta_classification_type": "U",
        "meta_norad_cat_id": 31012,
        "meta_element_set_no": 999,
        "meta_rev_at_epoch": 97932,
        "meta_bstar": 0.00017105569,
        "meta_mean_motion_dot": 3.92e-06,
        "meta_mean_motion_ddot": 0,
        "tle_line1": "1 31012U 99025BDE 25359.68866741  .00000392  00000+0  17106-3 0  9993",
        "tle_line2": "2 31012  98.9114 258.0495 0081668 213.4298 202.3807 14.27874514979327"
      },
      "geometry": {
        "type": "Point",
        "coordinates": [
          -141.29300158196511,
          76.6580804044143
        ]
      }
    },
    {
      "type": "Feature",
      "properties": {
        "norad_id": 31014,
        "name": "FENGYUN 1C DEB",
        "group": "fengyun-1c-debris",
        "lat": -15.191542162169826,
        "lon": 154.4127512766067,
        "alt_km": 856.2732892727408,
        "timestamp": "2025-12-27T17:24:57.685347+00:00",
        "meta_object_name": "FENGYUN 1C DEB",
        "meta_object_id": "1999-025BDG",
        "meta_epoch": "2025-12-26T21:52:17.616864",
        "meta_mean_motion": 13.98492488,
        "meta_eccentricity": 0.0088633,
        "meta_inclination": 98.8697,
        "meta_ra_of_asc_node": 336.0553,
        "meta_arg_of_pericenter": 154.4311,
        "meta_mean_anomaly": 262.4787,
        "meta_ephemeris_type": 0,
        "meta_classification_type": "U",
        "meta_norad_cat_id": 31014,
        "meta_element_set_no": 999,
        "meta_rev_at_epoch": 96034,
        "meta_bstar": -8.8728e-05,
        "meta_mean_motion_dot": -1.73e-06,
        "meta_mean_motion_ddot": 0,
        "tle_line1": "1 31014U 99025BDG 25360.91131501 -.00000173  00000+0 -88728-4 0  9990",
        "tle_line2": "2 31014  98.8697 336.0553 0088633 154.4311 262.4787 13.98492488960344"
      },
      "geometry": {
        "type": "Point",
        "coordinates": [
          154.4127512766067,
          -15.191542162169826
        ]
      }
    },
    {
      "type": "Feature",
      "properties": {
        "norad_id": 31016,
        "name": "FENGYUN 1C DEB",
        "group": "fengyun-1c-debris",
        "lat": -51.83804060298968,
        "lon": -173.77984425804726,
        "alt_km": 716.5637669094685,
        "timestamp": "2025-12-27T17:24:57.685357+00:00",
        "meta_object_name": "FENGYUN 1C DEB",
        "meta_object_id": "1999-025BDJ",
        "meta_epoch": "2025-12-26T17:08:49.146144",
        "meta_mean_motion": 14.30515996,
        "meta_eccentricity": 0.01122479,
        "meta_inclination": 98.4358,
        "meta_ra_of_asc_node": 16.1244,
        "meta_arg_of_pericenter": 232.5097,
        "meta_mean_anomaly": 195.3858,
        "meta_ephemeris_type": 0,
        "meta_classification_type": "U",
        "meta_norad_cat_id": 31016,
        "meta_element_set_no": 999,
        "meta_rev_at_epoch": 97670,
        "meta_bstar": 0.00027285605,
        "meta_mean_motion_dot": 7.18e-06,
        "meta_mean_motion_ddot": 0,
        "tle_line1": "1 31016U 99025BDJ 25360.71445771  .00000718  00000+0  27286-3 0  9991",
        "tle_line2": "2 31016  98.4358  16.1244 0112247 232.5097 195.3858 14.30515996976704"
      },
      "geometry": {
        "type": "Point",
        "coordinates": [
          -173.77984425804726,
          -51.83804060298968
        ]
      }
    }
  ]
}